CTC2_L_00246016-03
1 10062U 22123UE  26075.70043981  .00000000  00000+0  00000-0 0  9990
2 10062  90.0000 180.0000 0000000   0.0000   0.0000 14.15679949    15
CTC2_L_00246016-04
1 10063U 23702WQ  26075.70043981  .00000000  00000+0  00000-0 0  9995
2 10063  90.0000 180.0000 0000000   0.0000  90.0000 14.15679949    15
CTC2_L_00246017-01
1 10064U 22744LL  26075.70043981  .00000000  00000+0  00000-0 0  9991
2 10064  90.0000 192.0000 0000000   0.0000 192.0000 14.15679949    12
CTC2_L_00246017-02
1 10065U 23047SS  26075.70043981  .00000000  00000+0  00000-0 0  9999
2 10065  90.0000 192.0000 0000000   0.0000 282.0000 14.15679949    13
CTC2_L_00246017-03
1 10066U 22541RK  26075.70043981  .00000000  00000+0  00000-0 0  9998
2 10066  90.0000 192.0000 0000000   0.0000  12.0000 14.15679949    15
CTC2_L_00246017-04
1 10067U 22997T   26075.70043981  .00000000  00000+0  00000-0 0  9994
2 10067  90.0000 192.0000 0000000   0.0000 102.0000 14.15679949    16
CTC2_L_00246018-01
1 10068U 22364KB  26075.70043981  .00000000  00000+0  00000-0 0  9993
2 10068  90.0000 204.0000 0000000   0.0000 204.0000 14.15679949    14
CTC2_L_00246018-02
1 10069U 24791CS  26075.70043981  .00000000  00000+0  00000-0 0  9990
2 10069  90.0000 204.0000 0000000   0.0000 294.0000 14.15679949    14
CTC2_L_00246018-03
1 10070U 22991FE  26075.70043981  .00000000  00000+0  00000-0 0  9992
2 10070  90.0000 204.0000 0000000   0.0000  24.0000 14.15679949    17
CTC2_L_00246018-04
1 10071U 26179EA  26075.70043981  .00000000  00000+0  00000-0 0  9995
2 10071  90.0000 204.0000 0000000   0.0000 114.0000 14.15679949    18
CTC2_L_00246019-01
1 10072U 24207SL  26075.70043981  .00000000  00000+0  00000-0 0  9996
2 10072  90.0000 216.0000 0000000   0.0000 216.0000 14.15679949    15
CTC2_L_00246019-02
1 10073U 23028BO  26075.70043981  .00000000  00000+0  00000-0 0  9997
2 10073  90.0000 216.0000 0000000   0.0000 306.0000 14.15679949    16
CTC2_L_00246019-03
1 10074U 22332XA  26075.70043981  .00000000  00000+0  00000-0 0  9995
2 10074  90.0000 216.0000 0000000   0.0000  36.0000 14.15679949    17
CTC2_L_00246019-04
1 10075U 22871XM  26075.70043981  .00000000  00000+0  00000-0 0  9994
2 10075  90.0000 216.0000 0000000   0.0000 126.0000 14.15679949    18
CTC2_L_00246020-01
1 10076U 26261HC  26075.70043981  .00000000  00000+0  00000-0 0  9992
2 10076  90.0000 228.0000 0000000   0.0000 228.0000 14.15679949    15
CTC2_L_00246020-02
1 10077U 23182JY  26075.70043981  .00000000  00000+0  00000-0 0  9992
2 10077  90.0000 228.0000 0000000   0.0000 318.0000 14.15679949    16
CTC2_L_00246020-03
1 10078U 25832EP  26075.70043981  .00000000  00000+0  00000-0 0  9997
2 10078  90.0000 228.0000 0000000   0.0000  48.0000 14.15679949    17
CTC2_L_00246020-04
1 10079U 22743BL  26075.70043981  .00000000  00000+0  00000-0 0  9996
2 10079  90.0000 228.0000 0000000   0.0000 138.0000 14.15679949    18
CTC2_L_00246021-01
1 10080U 23122MQ  26075.70043981  .00000000  00000+0  00000-0 0  9990
2 10080  90.0000 240.0000 0000000   0.0000 240.0000 14.15679949    18
CTC2_L_00246021-02
1 10081U 25767ON  26075.70043981  .00000000  00000+0  00000-0 0  9998
2 10081  90.0000 240.0000 0000000   0.0000 330.0000 14.15679949    19
CTC2_L_00246021-03
1 10082U 26543TR  26075.70043981  .00000000  00000+0  00000-0 0  9992
2 10082  90.0000 240.0000 0000000   0.0000  60.0000 14.15679949    10
CTC2_L_00246021-04
1 10083U 26213G   26075.70043981  .00000000  00000+0  00000-0 0  9997
2 10083  90.0000 240.0000 0000000   0.0000 150.0000 14.15679949    11
CTC2_L_00246022-01
1 10084U 26838AY  26075.70043981  .00000000  00000+0  00000-0 0  9991
2 10084  90.0000 252.0000 0000000   0.0000 252.0000 14.15679949    18
CTC2_L_00246022-02
1 10085U 25320FN  26075.70043981  .00000000  00000+0  00000-0 0  9997
2 10085  90.0000 252.0000 0000000   0.0000 342.0000 14.15679949    19
CTC2_L_00246022-03
1 10086U 23017OP  26075.70043981  .00000000  00000+0  00000-0 0  9999
2 10086  90.0000 252.0000 0000000   0.0000  72.0000 14.15679949    10
CTC2_L_00246022-04
1 10087U 22454KD  26075.70043981  .00000000  00000+0  00000-0 0  9994
2 10087  90.0000 252.0000 0000000   0.0000 162.0000 14.15679949    11
CTC2_L_00246023-01
1 10088U 24713NX  26075.70043981  .00000000  00000+0  00000-0 0  9995
2 10088  90.0000 264.0000 0000000   0.0000 264.0000 14.15679949    18
CTC2_L_00246023-02
1 10089U 26759MS  26075.70043981  .00000000  00000+0  00000-0 0  9998
2 10089  90.0000 264.0000 0000000   0.0000 354.0000 14.15679949    19
CTC2_L_00246023-03
1 10090U 22460EZ  26075.70043981  .00000000  00000+0  00000-0 0  9995
2 10090  90.0000 264.0000 0000000   0.0000  84.0000 14.15679949    11
CTC2_L_00246023-04
1 10091U 26600WC  26075.70043981  .00000000  00000+0  00000-0 0  9996
2 10091  90.0000 264.0000 0000000   0.0000 174.0000 14.15679949    12
CTC2_L_00246024-01
1 10092U 25760XN  26075.70043981  .00000000  00000+0  00000-0 0  9993
2 10092  90.0000 276.0000 0000000   0.0000 276.0000 14.15679949    19
CTC2_L_00246024-02
1 10093U 24397NA  26075.70043981  .00000000  00000+0  00000-0 0  9999
2 10093  90.0000 276.0000 0000000   0.0000   6.0000 14.15679949    11
CTC2_L_00246024-03
1 10094U 25590HI  26075.70043981  .00000000  00000+0  00000-0 0  9996
2 10094  90.0000 276.0000 0000000   0.0000  96.0000 14.15679949    11
CTC2_L_00246024-04
1 10095U 22406OZ  26075.70043981  .00000000  00000+0  00000-0 0  9990
2 10095  90.0000 276.0000 0000000   0.0000 186.0000 14.15679949    12
CTC2_L_00246025-01
1 10096U 22399BA  26075.70043981  .00000000  00000+0  00000-0 0  9992
2 10096  90.0000 288.0000 0000000   0.0000 288.0000 14.15679949    19
CTC2_L_00246025-02
1 10097U 25687R   26075.70043981  .00000000  00000+0  00000-0 0  9996
2 10097  90.0000 288.0000 0000000   0.0000  18.0000 14.15679949    11
CTC2_L_00246025-03
1 10098U 22545HW  26075.70043981  .00000000  00000+0  00000-0 0  9997
2 10098  90.0000 288.0000 0000000   0.0000 108.0000 14.15679949    12
CTC2_L_00246025-04
1 10099U 24628QD  26075.70043981  .00000000  00000+0  00000-0 0  9992
2 10099  90.0000 288.0000 0000000   0.0000 198.0000 14.15679949    12
CTC2_L_00246026-01
1 10100U 25881RO  26075.70043981  .00000000  00000+0  00000-0 0  9997
2 10100  90.0000 300.0000 0000000   0.0000 300.0000 14.15679949    15
CTC2_L_00246026-02
1 10101U 22568IA  26075.70043981  .00000000  00000+0  00000-0 0  9997
2 10101  90.0000 300.0000 0000000   0.0000  30.0000 14.15679949    16
CTC2_L_00246026-03
1 10102U 22640GH  26075.70043981  .00000000  00000+0  00000-0 0  9999
2 10102  90.0000 300.0000 0000000   0.0000 120.0000 14.15679949    17
CTC2_L_00246026-04
1 10103U 23522UE  26075.70043981  .00000000  00000+0  00000-0 0  9990
2 10103  90.0000 300.0000 0000000   0.0000 210.0000 14.15679949    18
CTC2_L_00246027-01
1 10104U 26771LB  26075.70043981  .00000000  00000+0  00000-0 0  9990
2 10104  90.0000 312.0000 0000000   0.0000 312.0000 14.15679949    15
CTC2_L_00246027-02
1 10105U 25752HP  26075.70043981  .00000000  00000+0  00000-0 0  9999
2 10105  90.0000 312.0000 0000000   0.0000  42.0000 14.15679949    16
CTC2_L_00246027-03
1 10106U 23621GN  26075.70043981  .00000000  00000+0  00000-0 0  9993
2 10106  90.0000 312.0000 0000000   0.0000 132.0000 14.15679949    17
CTC2_L_00246027-04
1 10107U 24931NR  26075.70043981  .00000000  00000+0  00000-0 0  9999
2 10107  90.0000 312.0000 0000000   0.0000 222.0000 14.15679949    18
CTC2_L_00246028-01
1 10108U 24702OD  26075.70043981  .00000000  00000+0  00000-0 0  9996
2 10108  90.0000 324.0000 0000000   0.0000 324.0000 14.15679949    15
CTC2_L_00246028-02
1 10109U 25097YP  26075.70043981  .00000000  00000+0  00000-0 0  9995
2 10109  90.0000 324.0000 0000000   0.0000  54.0000 14.15679949    16
CTC2_L_00246028-03
1 10110U 26400FS  26075.70043981  .00000000  00000+0  00000-0 0  9996
2 10110  90.0000 324.0000 0000000   0.0000 144.0000 14.15679949    18
CTC2_L_00246028-04
1 10111U 23676WQ  26075.70043981  .00000000  00000+0  00000-0 0  9999
2 10111  90.0000 324.0000 0000000   0.0000 234.0000 14.15679949    19
CTC2_L_00246029-01
1 10112U 26005GT  26075.70043981  .00000000  00000+0  00000-0 0  9999
2 10112  90.0000 336.0000 0000000   0.0000 336.0000 14.15679949    16
CTC2_L_00246029-02
1 10113U 24790PH  26075.70043981  .00000000  00000+0  00000-0 0  9999
2 10113  90.0000 336.0000 0000000   0.0000  66.0000 14.15679949    17
CTC2_L_00246029-03
1 10114U 22611UX  26075.70043981  .00000000  00000+0  00000-0 0  9990
2 10114  90.0000 336.0000 0000000   0.0000 156.0000 14.15679949    18
CTC2_L_00246029-04
1 10115U 26015NW  26075.70043981  .00000000  00000+0  00000-0 0  9993
2 10115  90.0000 336.0000 0000000   0.0000 246.0000 14.15679949    19
CTC2_L_00246030-01
1 10116U 25382XA  26075.70043981  .00000000  00000+0  00000-0 0  9990
2 10116  90.0000 348.0000 0000000   0.0000 348.0000 14.15679949    16
CTC2_L_00246030-02
1 10117U 24810BP  26075.70043981  .00000000  00000+0  00000-0 0  9996
2 10117  90.0000 348.0000 0000000   0.0000  78.0000 14.15679949    17
CTC2_L_00246030-03
1 10118U 23372D   26075.70043981  .00000000  00000+0  00000-0 0  9999
2 10118  90.0000 348.0000 0000000   0.0000 168.0000 14.15679949    18
CTC2_L_00246030-04
1 10119U 23830WC  26075.70043981  .00000000  00000+0  00000-0 0  9999
2 10119  90.0000 348.0000 0000000   0.0000 258.0000 14.15679949    19
